NORAD_CAT_ID,OBJECT_NAME,OBJECT_TYPE,EPOCH,MEAN_MOTION,ECCENTRICITY,INCLINATION,RA_OF_ASC_NODE,ARG_OF_PERICENTER,MEAN_ANOMALY,BSTAR,MEAN_MOTION_DOT,MEAN_MOTION_DDOT,TLE_LINE0,TLE_LINE1,TLE_LINE2,SEMIMAJOR_AXIS,PERIOD,APOGEE,PERIGEE,DECAYED
52676.0,STARLINK-4006,PAYLOAD,2022-09-30 17:28:13,15.08846295,0.0001875,53.2198,32.351,50.9271,309.1887,2.9695e-05,1.85e-06,0.0,0 STARLINK-4006,1 52676U 22053W   22273.72793771  .00000185  00000-0  29695-4 0  9996,2 52676  53.2198  32.3510 0001875  50.9271 309.1887 15.08846295 21002,6917.861,95.437,541.023,538.429,0.0
52676.0,STARLINK-4006,PAYLOAD,2022-10-01 12:32:50,15.08853067,0.0001966,53.2206,28.7836,49.5741,310.5423,0.00015985,2.258e-05,0.0,0 STARLINK-4006,1 52676U 22053W   22274.52280481  .00002258  00000-0  15985-3 0  9993,2 52676  53.2206  28.7836 0001966  49.5741 310.5423 15.08853067 21129,6917.84,95.437,541.065,538.345,0.0
52676.0,STARLINK-4006,PAYLOAD,2022-10-01 14:08:13,15.08854851,0.0001847,53.2202,28.4851,52.5425,307.5735,0.00017156,2.444e-05,0.0,0 STARLINK-4006,1 52676U 22053W   22274.58904281  .00002444  00000-0  17156-3 0  9999,2 52676  53.2202  28.4851 0001847  52.5425 307.5735 15.08854851 21562,6917.835,95.437,540.9780000000002,538.422,0.0
52676.0,STARLINK-4006,PAYLOAD,2022-10-01 17:18:59,15.088547,0.0001746,53.2212,27.8909,48.3155,311.7987,0.00014941,2.092e-05,0.0,0 STARLINK-4006,1 52676U 22053W   22274.72152281  .00002092  00000-0  14941-3 0  9998,2 52676  53.2212  27.8909 0001746  48.3155 311.7987 15.08854700 21582,6917.835,95.437,540.908,538.493,0.0
52676.0,STARLINK-4006,PAYLOAD,2022-10-02 10:48:15,15.08835775,0.0001759,53.2217,24.6202,42.084,318.0287,-4.6652e-05,-1.03e-05,0.0,0 STARLINK-4006,1 52676U 22053W   22275.45018235 -.00001030  00000-0 -46652-4 0  9997,2 52676  53.2217  24.6202 0001759  42.0840 318.0287 15.08835775 21263,6917.893,95.438,540.975,538.5409999999998,0.0
52676.0,STARLINK-4006,PAYLOAD,2022-10-02 12:23:38,15.08836259,0.0001761999999999,53.2214,24.3226,45.6387,314.4749,-4.0204e-05,-9.28e-06,0.0,0 STARLINK-4006,1 52676U 22053W   22275.51642213 -.00000928  00000-0 -40204-4 0  9995,2 52676  53.2214  24.3226 0001762  45.6387 314.4749 15.08836259 21702,6917.892,95.438,540.976,538.538,0.0
52676.0,STARLINK-4006,PAYLOAD,2022-10-02 17:09:48,15.08833603,0.0001909,53.2214,23.4313,48.4205,311.6951,-4.0741e-05,-9.36e-06,0.0,0 STARLINK-4006,1 52676U 22053W   22275.71514491 -.00000936  00000-0 -40741-4 0  9998,2 52676  53.2214  23.4313 0001909  48.4205 311.6951 15.08833603 21739,6917.9,95.438,541.086,538.444,0.0
52676.0,STARLINK-4006,PAYLOAD,2022-10-03 10:39:01,15.08854243,0.0001730999999999,53.2209,20.1604,44.7797,315.3335,4.546e-05,4.36e-06,0.0,0 STARLINK-4006,1 52676U 22053W   22276.44376572  .00000436  00000-0  45460-4 0  9991,2 52676  53.2209  20.1604 0001731  44.7797 315.3335 15.08854243 21413,6917.837,95.437,540.899,538.504,0.0
52676.0,STARLINK-4006,PAYLOAD,2022-10-03 13:49:47,15.08857944,0.0001885999999999,53.2211,19.5661,43.2591,316.8549,8.4353e-05,1.055e-05,0.0,0 STARLINK-4006,1 52676U 22053W   22276.57624172  .00001055  00000-0  84353-4 0  9999,2 52676  53.2211  19.5661 0001886  43.2591 316.8549 15.08857944 21861,6917.826,95.436,540.995,538.386,0.0
52676.0,STARLINK-4006,PAYLOAD,2022-10-03 17:00:33,15.0885729,0.0001857,53.221,18.9713,41.2909,318.8223,7.9037e-05,9.71e-06,0.0,0 STARLINK-4006,1 52676U 22053W   22276.70872119  .00000971  00000-0  79037-4 0  9999,2 52676  53.2210  18.9713 0001857  41.2909 318.8223 15.08857290 21887,6917.828,95.436,540.977,538.408,0.0
52676.0,STARLINK-4006,PAYLOAD,2022-10-04 12:05:11,15.08844616,0.000173,53.2219,15.4028,57.2811,302.8348,0.00022735,3.333e-05,0.0,0 STARLINK-4006,1 52676U 22053W   22277.50360340  .00003333  00000-0  22735-3 0  9993,2 52676  53.2219  15.4028 0001730  57.2811 302.8348 15.08844616 21571,6917.866,95.437,540.928,538.534,0.0
52676.0,STARLINK-4006,PAYLOAD,2022-10-04 13:40:34,15.08848082,0.0001909,53.2224,15.1086,45.4276,314.6872,0.00025138,3.716e-05,0.0,0 STARLINK-4006,1 52676U 22053W   22277.56984162  .00003716  00000-0  25138-3 0  9998,2 52676  53.2224  15.1086 0001909  45.4276 314.6872 15.08848082 22014,6917.856,95.437,541.0409999999998,538.4,0.0
52676.0,STARLINK-4006,PAYLOAD,2022-10-04 23:12:53,15.08841295,0.0001950999999999,53.2217,13.324000000000002,42.9433,317.1711,7.3223e-05,8.77e-06,0.0,0 STARLINK-4006,1 52676U 22053W   22277.96728980  .00000877  00000-0  73223-4 0  9990,2 52676  53.2217  13.3240 0001951  42.9433 317.1711 15.08841295 21649,6917.876,95.437,541.091,538.3919999999998,0.0
52676.0,STARLINK-4006,PAYLOAD,2022-10-05 11:55:59,15.08841223,0.000193,53.2224,10.947,41.6336,318.4803,-9.0663e-05,-1.731e-05,0.0,0 STARLINK-4006,1 52676U 22053W   22278.49721401 -.00001731  00000-0 -90663-4 0  9999,2 52676  53.2224  10.9470 0001930  41.6336 318.4803 15.08841223 21726,6917.877,95.437,541.077,538.4069999999998,0.0
52676.0,STARLINK-4006,PAYLOAD,2022-10-06 11:46:46,15.08834313,0.000198,53.2213,6.4835,45.6589,314.4565,-5.1489e-05,-1.107e-05,0.0,0 STARLINK-4006,1 52676U 22053W   22279.49082052 -.00001107  00000-0 -51489-4 0  9992,2 52676  53.2213   6.4835 0001980  45.6589 314.4565 15.08834313 22306,6917.898,95.438,541.133,538.393,0.0
52676.0,STARLINK-4006,PAYLOAD,2022-10-06 18:08:18,15.0884767,0.0001808,53.2216,5.2917,46.5952,313.5191,8.3646e-05,1.044e-05,0.0,0 STARLINK-4006,1 52676U 22053W   22279.75576868  .00001044  00000-0  83646-4 0  9992,2 52676  53.2216   5.2917 0001808  46.5952 313.5191 15.08847670 21911,6917.857,95.437,540.9730000000002,538.471,0.0
52676.0,STARLINK-4006,PAYLOAD,2022-10-07 10:02:10,15.08836638,0.0001748,53.2209,2.3173,49.0303,311.084,0.00020157,2.921e-05,0.0,0 STARLINK-4006,1 52676U 22053W   22280.41817783  .00002921  00000-0  20157-3 0  9993,2 52676  53.2209   2.3173 0001748  49.0303 311.0840 15.08836638 22441,6917.891,95.438,540.965,538.5459999999998,0.0
52676.0,STARLINK-4006,PAYLOAD,2022-10-07 11:37:33,15.08839317,0.0001523,53.2215,2.0174,71.5495,288.5662,0.00022711,3.328e-05,0.0,0 STARLINK-4006,1 52676U 22053W   22280.48441417  .00003328  00000-0  22711-3 0  9997,2 52676  53.2215   2.0174 0001523  71.5495 288.5662 15.08839317 22020,6917.882,95.438,540.8009999999998,538.694,0.0
52676.0,STARLINK-4006,PAYLOAD,2022-10-07 17:59:06,15.08842438,0.0002334999999999,53.2216,0.8343,39.3034,320.8128,0.00020423,2.964e-05,0.0,0 STARLINK-4006,1 52676U 22053W   22280.74937562  .00002964  00000-0  20423-3 0  9990,2 52676  53.2216   0.8343 0002335  39.3034 320.8128 15.08842438 22494,6917.873000000001,95.437,541.3530000000002,538.123,0.0
52676.0,STARLINK-4006,PAYLOAD,2022-10-08 09:52:57,15.08838434,0.0001829,53.2216,357.8574,44.7907,315.3233,1.3121e-05,-7.9e-07,0.0,0 STARLINK-4006,1 52676U 22053W   22281.41177794 -.00000079  00000-0  13121-4 0  9992,2 52676  53.2216 357.8574 0001829  44.7907 315.3233 15.08838434 22162,6917.885,95.438,541.015,538.485,0.0
52676.0,STARLINK-4006,PAYLOAD,2022-10-08 11:28:21,15.08836118,0.0001792,53.2206,357.5625,46.5184,313.5957,-1.2058e-05,-4.8e-06,0.0,0 STARLINK-4006,1 52676U 22053W   22281.47802348 -.00000480  00000-0 -12058-4 0  9993,2 52676  53.2206 357.5625 0001792  46.5184 313.5957 15.08836118 22600,6917.892,95.438,540.997,538.518,0.0
52676.0,STARLINK-4006,PAYLOAD,2022-10-08 16:14:30,15.08843404,0.0001523,53.2204,356.6711,55.3368,304.7768,-0.00017381,-3.053e-05,0.0,0 STARLINK-4006,1 52676U 22053W   22281.67674268 -.00003053  00000-0 -17381-3 0  9995,2 52676  53.2204 356.6711 0001523  55.3368 304.7768 15.08843404 22639,6917.87,95.437,540.789,538.681,0.0
52676.0,STARLINK-4006,PAYLOAD,2022-10-09 11:19:08,15.08837872,0.0001989,53.22,353.1036,36.0973,324.0153,7.371699999999997e-06,-1.71e-06,0.0,0 STARLINK-4006,1 52676U 22053W   22282.47162315 -.00000171  00000-0  73717-5 0  9993,2 52676  53.2200 353.1036 0001989  36.0973 324.0153 15.08837872 22322,6917.887,95.438,541.128,538.376,0.0
52676.0,STARLINK-4006,PAYLOAD,2022-10-09 16:05:17,15.08841601,0.0001884,53.22,352.21,38.7744,321.3383,4.536e-05,4.34e-06,0.0,0 STARLINK-4006,1 52676U 22053W   22282.67034146  .00000434  00000-0  45360-4 0  9998,2 52676  53.2200 352.2100 0001884  38.7744 321.3383 15.08841601 22783,6917.875,95.437,541.044,538.437,0.0
52676.0,STARLINK-4006,PAYLOAD,2022-10-10 11:09:55,15.08835003,0.0002112,53.22,348.6434,38.1149,321.9993,0.00020124,2.916e-05,0.0,0 STARLINK-4006,1 52676U 22053W   22283.46522802  .00002916  00000-0  20124-3 0  9994,2 52676  53.2200 348.6434 0002112  38.1149 321.9993 15.08835003 22906,6917.896,95.438,541.222,538.3,0.0
52676.0,STARLINK-4006,PAYLOAD,2022-10-10 14:20:42,15.08833059,0.0002124,53.2199,348.0485,39.1445,320.9701,0.00013975,1.936e-05,0.0,0 STARLINK-4006,1 52676U 22053W   22283.59770946  .00001936  00000-0  13975-3 0  9999,2 52676  53.2199 348.0485 0002124  39.1445 320.9701 15.08833059 22923,6917.901999999999,95.438,541.236,538.297,0.0
52676.0,STARLINK-4006,PAYLOAD,2022-10-11 11:00:43,15.08812735,0.0002366,53.2196,344.182,38.045,322.0709,-0.00025544,-4.348e-05,0.0,0 STARLINK-4006,1 52676U 22053W   22284.45884057 -.00004348  00000-0 -25544-3 0  9991,2 52676  53.2196 344.1820 0002366  38.0450 322.0709 15.08812735 22628,6917.964,95.439,541.466,538.192,0.0
52676.0,STARLINK-4006,PAYLOAD,2022-10-11 12:36:06,15.0881657,0.0002343,53.2191,343.8841,35.3459,324.7688,-0.00020769,-3.59e-05,0.0,0 STARLINK-4006,1 52676U 22053W   22284.52507946 -.00003590  00000-0 -20769-3 0  9990,2 52676  53.2191 343.8841 0002343  35.3459 324.7688 15.08816570 23061,6917.9519999999975,95.439,541.438,538.196,0.0
52676.0,STARLINK-4006,PAYLOAD,2022-10-11 15:46:53,15.08819149,0.0002326,53.2192,343.2898,38.217,321.8987,-0.00015022,-2.677e-05,0.0,0 STARLINK-4006,1 52676U 22053W   22284.65755961 -.00002677  00000-0 -15022-3 0  9997,2 52676  53.2192 343.2898 0002326  38.2170 321.8987 15.08819149 22650,6917.944,95.439,541.418,538.2,0.0
